H1 CPF 01  gfz 2021 10 02 12  7752 tandemx   
H2 1003001  6202 36605    2021 10 02 12 59 42 2021 10 07 00 00 42   120 1 1  0 0 0
H9
10 0 59491   6462.000000  0   -3178274.698  -5789194.753   1951689.074
10 0 59491   6582.000000  0   -3182067.541  -5426249.262   2799365.817
10 0 59491   6702.000000  0   -3123036.756  -4968897.705   3597740.400
10 0 59491   6822.000000  0   -3000649.528  -4426253.896   4332761.532
10 0 59491   6942.000000  0   -2815659.211  -3808927.992   4991506.178
10 0 59491   7062.000000  0   -2570113.559  -3128811.029   5562407.374
10 0 59491   7182.000000  0   -2267335.112  -2398838.216   6035454.715
10 0 59491   7302.000000  0   -1911875.806  -1632737.827   6402365.252
10 0 59491   7422.000000  0   -1509446.268   -844769.058   6656724.319
10 0 59491   7542.000000  0   -1066821.276    -49452.634   6794090.725
10 0 59491   7662.000000  0    -591725.461    738696.188   6812067.673
10 0 59491   7782.000000  0     -92698.698   1505431.678   6710342.987
10 0 59491   7902.000000  0     421057.377   2237035.042   6490694.408
10 0 59491   8022.000000  0     939848.791   2920559.862   6156959.884
10 0 59491   8142.000000  0    1453671.131   3544061.653   5714974.709
10 0 59491   8262.000000  0    1952401.473   4096809.827   5172475.358
10 0 59491   8382.000000  0    2425998.024   4569477.750   4538970.324
10 0 59491   8502.000000  0    2864703.520   4954306.270   3825577.670
10 0 59491   8622.000000  0    3259246.396   5245236.859   3044834.046
10 0 59491   8742.000000  0    3601039.120   5438016.214   2210476.667
10 0 59491   8862.000000  0    3882366.514   5530262.698   1337196.076
10 0 59491   8982.000000  0    4096556.642   5521494.659    440372.860
10 0 59491   9102.000000  0    4238133.594   5413121.434   -464202.065
10 0 59491   9222.000000  0    4302946.596   5208393.589  -1360613.841
10 0 59491   9342.000000  0    4288273.151   4912317.737  -2233111.417
10 0 59491   9462.000000  0    4192892.650   4531536.618  -3066391.264
10 0 59491   9582.000000  0    4017128.612   4074177.892  -3845870.785
10 0 59491   9702.000000  0    3762859.249   3549675.288  -4557943.905
10 0 59491   9822.000000  0    3433498.263   2968568.742  -5190215.425
10 0 59491   9942.000000  0    3033944.823   2342287.485  -5731710.816
10 0 59491  10062.000000  0    2570505.208   1682921.649  -6173057.314
10 0 59491  10182.000000  0    2050788.380   1002987.247  -6506634.924
10 0 59491  10302.000000  0    1483578.336    315190.121  -6726695.344
10 0 59491  10422.000000  0     878686.415   -367807.137  -6829451.823
10 0 59491  10542.000000  0     246782.369  -1033614.029  -6813137.824
10 0 59491  10662.000000  0    -400789.963  -1670331.054  -6678032.130
10 0 59491  10782.000000  0   -1052210.459  -2266756.045  -6426455.115
10 0 59491  10902.000000  0   -1695393.524  -2812577.900  -6062734.253
10 0 59491  11022.000000  0   -2318206.973  -3298553.059  -5593136.967
10 0 59491  11142.000000  0   -2908696.744  -3716662.680  -5025774.216
10 0 59491  11262.000000  0   -3455315.951  -4060249.464  -4370472.704
10 0 59491  11382.000000  0   -3947152.078  -4324129.229  -3638614.824
10 0 59491  11502.000000  0   -4374147.672  -4504675.324  -2842950.022
10 0 59491  11622.000000  0   -4727310.603  -4599873.848  -1997378.404
10 0 59491  11742.000000  0   -4998908.058  -4609347.221  -1116709.948
10 0 59491  11862.000000  0   -5182639.241  -4534345.330   -216403.493
10 0 59491  11982.000000  0   -5273782.378  -4377704.175    687709.563
10 0 59491  12102.000000  0   -5269311.232  -4143771.881   1579712.209
10 0 59491  12222.000000  0   -5167976.949  -3838302.842   2443891.898
10 0 59491  12342.000000  0   -4970353.646  -3468323.402   3265026.082
10 0 59491  12462.000000  0   -4678847.006  -3041973.257   4028657.425
10 0 59491  12582.000000  0   -4297665.470  -2568326.037   4721353.874
10 0 59491  12702.000000  0   -3832754.444  -2057193.741   5330945.908
10 0 59491  12822.000000  0   -3291698.068  -1518921.840   5846737.917
10 0 59491  12942.000000  0   -2683590.010   -964178.479   6259693.301
10 0 59491  13062.000000  0   -2018874.074   -403740.642   6562588.698
10 0 59491  13182.000000  0   -1309158.953    151716.651   6750133.233
10 0 59491  13302.000000  0    -567013.034    691821.996   6819054.152
10 0 59491  13422.000000  0     194258.303   1206700.196   6768150.530
10 0 59491  13542.000000  0     960850.685   1687152.503   6598313.069
10 0 59491  13662.000000  0    1718710.591   2124821.286   6312509.105
10 0 59491  13782.000000  0    2453792.094   2512335.360   5915733.540
10 0 59491  13902.000000  0    3152317.542   2843435.452   5414927.724
10 0 59491  14022.000000  0    3801039.041   3113077.925   4818864.150
10 0 59491  14142.000000  0    4387492.853   3317513.995   4137997.311
10 0 59491  14262.000000  0    4900244.106   3454342.906   3384286.673
10 0 59491  14382.000000  0    5329119.403   3522539.171   2570987.674
10 0 59491  14502.000000  0    5665414.448   3522449.203   1712416.299
10 0 59491  14622.000000  0    5902076.174   3455761.041    823693.291
10 0 59491  14742.000000  0    6033853.862   3325445.875    -79529.696
10 0 59491  14862.000000  0    6057413.917   3135672.126   -981354.613
10 0 59491  14982.000000  0    5971416.476   2891694.861  -1865925.428
10 0 59491  15102.000000  0    5776550.953   2599724.728  -2717713.944
10 0 59491  15222.000000  0    5475531.637   2266779.392  -3521797.986
10 0 59491  15342.000000  0    5073053.539   1900520.205  -4264125.371
10 0 59491  15462.000000  0    4575708.840   1509078.967  -4931759.432
10 0 59491  15582.000000  0    3991866.900   1100879.754  -5513098.225
10 0 59491  15702.000000  0    3331524.197    684460.807  -5998067.331
10 0 59491  15822.000000  0    2606125.303    268299.267  -6378284.357
10 0 59491  15942.000000  0    1828359.659   -139357.306  -6647191.770
10 0 59491  16062.000000  0    1011939.754   -530649.855  -6800159.366
10 0 59491  16182.000000  0     171361.246   -898255.414  -6834556.619
10 0 59491  16302.000000  0    -678350.040  -1235519.935  -6749791.245
10 0 59491  16422.000000  0   -1521899.425  -1536575.138  -6547318.504
10 0 59491  16542.000000  0   -2343992.609  -1796438.660  -6230619.504
10 0 59491  16662.000000  0   -3129606.740  -2011095.269  -5805146.857
10 0 59491  16782.000000  0   -3864260.212  -2177558.925  -5278241.646
10 0 59491  16902.000000  0   -4534280.549  -2293914.992  -4659019.053
10 0 59491  17022.000000  0   -5127062.543  -2359340.488  -3958221.587
10 0 59491  17142.000000  0   -5631312.129  -2374102.425  -3188042.943
10 0 59491  17262.000000  0   -6037271.235  -2339533.452  -2361922.773
10 0 59491  17382.000000  0   -6336917.080  -2257984.891  -1494315.709
10 0 59491  17502.000000  0   -6524131.448  -2132758.167   -600438.303
10 0 59491  17622.000000  0   -6594834.342  -1968015.661    304001.792
10 0 59491  17742.000000  0   -6547078.576  -1768672.854   1203088.738
10 0 59491  17862.000000  0   -6381101.532  -1540274.243   2080987.734
10 0 59491  17982.000000  0   -6099331.932  -1288856.921   2922233.307
10 0 59491  18102.000000  0   -5706352.766  -1020804.730   3712009.673
10 0 59491  18222.000000  0   -5208820.584   -742696.489   4436419.034
10 0 59491  18342.000000  0   -4615342.013   -461153.023   5082728.383
10 0 59491  18462.000000  0   -3936316.104   -182686.850   5639591.927
10 0 59491  18582.000000  0   -3183743.474     86442.765   6097248.402
10 0 59491  18702.000000  0   -2371005.260    340365.833   6447687.434
10 0 59491  18822.000000  0   -1512618.834    573724.903   6684783.730
10 0 59491  18942.000000  0    -623974.317    781784.690   6804398.261
10 0 59491  19062.000000  0     278942.449    960526.142   6804445.134
10 0 59491  19182.000000  0    1179836.689   1106722.960   6684925.325
10 0 59491  19302.000000  0    2062397.769   1218000.101   6447926.752
10 0 59491  19422.000000  0    2910593.640   1292872.483   6097590.087
10 0 59491  19542.000000  0    3708963.291   1330763.623   5640041.561
10 0 59491  19662.000000  0    4442901.530   1332003.848   5083290.475
10 0 59491  19782.000000  0    5098930.096   1297808.604   4437095.981
10 0 59491  19902.000000  0    5664954.503   1230236.980   3712802.453
10 0 59491  20022.000000  0    6130497.236   1132131.370   2923141.510
10 0 59491  20142.000000  0    6486900.313   1007038.186   2082007.781
10 0 59491  20262.000000  0    6727495.905    859112.867   1204212.239
10 0 59491  20382.000000  0    6847738.304    693010.834    305214.928
10 0 59491  20502.000000  0    6845294.309    513766.856   -599154.756
10 0 59491  20622.000000  0    6720088.681    326666.065  -1492986.626
10 0 59491  20742.000000  0    6474302.912    137110.199  -2360577.976
10 0 59491  20862.000000  0    6112329.590    -49518.132  -3186715.575
10 0 59491  20982.000000  0    5640683.730   -227988.904  -3956946.437
10 0 59491  21102.000000  0    5067872.691   -393352.691  -4657831.506
10 0 59491  21222.000000  0    4404229.056   -541059.509  -5277175.869
10 0 59491  21342.000000  0    3661713.578   -667066.563  -5804233.231
10 0 59491  21462.000000  0    2853691.227   -767933.583  -6229883.451
10 0 59491  21582.000000  0    1994684.425   -840902.487  -6546779.176
10 0 59491  21702.000000  0    1100110.798   -883960.222  -6749460.651
10 0 59491  21822.000000  0     186009.066   -895885.393  -6834440.735
10 0 59491  21942.000000  0    -731243.954   -876275.936  -6800257.987
10 0 59491  22062.000000  0   -1635219.400   -825559.027  -6647498.993
10 0 59491  22182.000000  0   -2509724.285   -744982.276  -6378789.464
10 0 59491  22302.000000  0   -3339084.666   -636586.797  -5998752.661
10 0 59491  22422.000000  0   -4108421.448   -503162.566  -5513939.680
10 0 59491  22542.000000  0   -4803918.182   -348186.249  -4932727.811
10 0 59491  22662.000000  0   -5413072.278   -175742.718  -4265187.009
10 0 59491  22782.000000  0   -5924927.715      9568.257  -3522917.363
10 0 59491  22902.000000  0   -6330283.560    202739.607  -2718855.778
99
